{
  "norad_id": 66910,
  "name": "ISS OBJECT XW",
  "history": [
    {
      "epoch": "2026-04-15T15:01:49.778976Z",
      "apogee_km": 327.87195993559635,
      "perigee_km": 314.7704994216356,
      "latitude_deg": -3.488958856687124e-06,
      "longitude_deg": 166.22704851856957,
      "height_km": 317.91201152031636,
      "semi_major_axis_km": 6699.458229678616,
      "eccentricity": 0.0009778,
      "inclination_deg": 51.619,
      "raan_deg": 235.4701,
      "arg_perigee_deg": 309.4685,
      "mean_anomaly_deg": 50.5452,
      "mean_motion_rev_day": 15.83227178
    },
    {
      "epoch": "2026-04-16T13:45:03.076128Z",
      "apogee_km": 326.9862119398904,
      "perigee_km": 313.63352794934417,
      "latitude_deg": 4.26538517469684e-06,
      "longitude_deg": 179.5569596148611,
      "height_km": 316.3822101679248,
      "semi_major_axis_km": 6698.446869944617,
      "eccentricity": 0.0009967,
      "inclination_deg": 51.6192,
      "raan_deg": 230.5385,
      "arg_perigee_deg": 314.5361,
      "mean_anomaly_deg": 45.4827,
      "mean_motion_rev_day": 15.83585755
    },
    {
      "epoch": "2026-04-17T12:27:57.419712Z",
      "apogee_km": 326.1343634582854,
      "perigee_km": 312.3793898622789,
      "latitude_deg": -6.045441986911716e-05,
      "longitude_deg": -167.03559736967864,
      "height_km": 314.8538115506537,
      "semi_major_axis_km": 6697.393876660282,
      "eccentricity": 0.00102689,
      "inclination_deg": 51.6191,
      "raan_deg": 225.6053,
      "arg_perigee_deg": 318.5885,
      "mean_anomaly_deg": 41.4338,
      "mean_motion_rev_day": 15.83959237
    },
    {
      "epoch": "2026-04-18T14:12:10.974816Z",
      "apogee_km": 324.62030743596097,
      "perigee_km": 310.88168444588973,
      "latitude_deg": -4.047988063824807e-05,
      "longitude_deg": 160.2584542299334,
      "height_km": 313.0208705118124,
      "semi_major_axis_km": 6695.887995940925,
      "eccentricity": 0.0010259,
      "inclination_deg": 51.6188,
      "raan_deg": 220.0128,
      "arg_perigee_deg": 322.9849,
      "mean_anomaly_deg": 37.0445,
      "mean_motion_rev_day": 15.84493607
    },
    {
      "epoch": "2026-04-19T11:23:27.791808Z",
      "apogee_km": 323.45144653651187,
      "perigee_km": 309.21632364645393,
      "latitude_deg": -2.9728443196341953e-06,
      "longitude_deg": -163.03854806446535,
      "height_km": 311.06616781415937,
      "semi_major_axis_km": 6694.470885091483,
      "eccentricity": 0.0010632,
      "inclination_deg": 51.6189,
      "raan_deg": 215.406,
      "arg_perigee_deg": 327.7961,
      "mean_anomaly_deg": 32.2392,
      "mean_motion_rev_day": 15.84996751
    },
    {
      "epoch": "2026-04-20T13:06:38.350080Z",
      "apogee_km": 322.1022980791222,
      "perigee_km": 307.60902405114484,
      "latitude_deg": -3.834838733141882e-05,
      "longitude_deg": 164.5139629859189,
      "height_km": 309.17653800087595,
      "semi_major_axis_km": 6692.992661065133,
      "eccentricity": 0.00108272,
      "inclination_deg": 51.6185,
      "raan_deg": 209.8088,
      "arg_perigee_deg": 332.6022,
      "mean_anomaly_deg": 27.4409,
      "mean_motion_rev_day": 15.85521877
    },
    {
      "epoch": "2026-04-22T11:59:08.001024Z",
      "apogee_km": 319.07781860590603,
      "perigee_km": 304.0460650835803,
      "latitude_deg": -5.766334870455171e-06,
      "longitude_deg": 169.24985434866653,
      "height_km": 305.2267854858996,
      "semi_major_axis_km": 6689.698941844743,
      "eccentricity": 0.0011235,
      "inclination_deg": 51.6166,
      "raan_deg": 199.5933,
      "arg_perigee_deg": 340.6031,
      "mean_anomaly_deg": 19.4544,
      "mean_motion_rev_day": 15.86692985
    },
    {
      "epoch": "2026-04-22T22:33:55.821888Z",
      "apogee_km": 318.3730645725509,
      "perigee_km": 303.33888396358543,
      "latitude_deg": 8.54669334143306e-06,
      "longitude_deg": 7.807707834162615,
      "height_km": 304.42707431451396,
      "semi_major_axis_km": 6688.992974268068,
      "eccentricity": 0.0011238,
      "inclination_deg": 51.616,
      "raan_deg": 197.2849,
      "arg_perigee_deg": 342.8473,
      "mean_anomaly_deg": 17.215,
      "mean_motion_rev_day": 15.86944185
    },
    {
      "epoch": "2026-04-24T10:49:38.102880Z",
      "apogee_km": 316.00809185348226,
      "perigee_km": 300.77751426807026,
      "latitude_deg": 2.691367257367003e-05,
      "longitude_deg": 174.47563223363207,
      "height_km": 301.6618806331292,
      "semi_major_axis_km": 6686.529803060776,
      "eccentricity": 0.0011389,
      "inclination_deg": 51.6161,
      "raan_deg": 189.3682,
      "arg_perigee_deg": 349.349,
      "mean_anomaly_deg": 10.7272,
      "mean_motion_rev_day": 15.87821159
    },
    {
      "epoch": "2026-04-25T14:00:32.651136Z",
      "apogee_km": 313.8111991686492,
      "perigee_km": 298.5442243669713,
      "latitude_deg": 4.457813603146983e-05,
      "longitude_deg": 119.6906435801088,
      "height_km": 299.3348672650934,
      "semi_major_axis_km": 6684.31471176781,
      "eccentricity": 0.001142,
      "inclination_deg": 51.6162,
      "raan_deg": 183.4268,
      "arg_perigee_deg": 354.2702,
      "mean_anomaly_deg": 5.8171,
      "mean_motion_rev_day": 15.88610498
    },
    {
      "epoch": "2026-04-26T11:08:27.041568Z",
      "apogee_km": 311.98234500230683,
      "perigee_km": 296.5672238497582,
      "latitude_deg": 3.401553235991488e-05,
      "longitude_deg": 157.22285752770978,
      "height_km": 297.3229633194129,
      "semi_major_axis_km": 6682.411784426033,
      "eccentricity": 0.00115341,
      "inclination_deg": 51.6163,
      "raan_deg": 178.8035,
      "arg_perigee_deg": 358.192,
      "mean_anomaly_deg": 1.9042,
      "mean_motion_rev_day": 15.89289121
    },
    {
      "epoch": "2026-04-27T20:19:42.515040Z",
      "apogee_km": 308.7542074267558,
      "perigee_km": 293.390689852994,
      "latitude_deg": 1.63274238537481e-05,
      "longitude_deg": 10.773504193834254,
      "height_km": 294.160359648974,
      "semi_major_axis_km": 6679.209448639875,
      "eccentricity": 0.0011501,
      "inclination_deg": 51.6164,
      "raan_deg": 171.5316,
      "arg_perigee_deg": 4.0093,
      "mean_anomaly_deg": 356.1003,
      "mean_motion_rev_day": 15.90432231
    },
    {
      "epoch": "2026-04-28T08:23:27.122208Z",
      "apogee_km": 307.5955812155362,
      "perigee_km": 292.2640753911164,
      "latitude_deg": -4.018774513781321e-06,
      "longitude_deg": -173.30445944886407,
      "height_km": 293.05698271045605,
      "semi_major_axis_km": 6678.066828303326,
      "eccentricity": 0.0011479,
      "inclination_deg": 51.6161,
      "raan_deg": 168.8849,
      "arg_perigee_deg": 6.0337,
      "mean_anomaly_deg": 354.0805,
      "mean_motion_rev_day": 15.90840434
    },
    {
      "epoch": "2026-04-29T13:01:37.259040Z",
      "apogee_km": 304.81150188010633,
      "perigee_km": 289.8051008426464,
      "latitude_deg": -3.0134779869898016e-05,
      "longitude_deg": 109.68913892449193,
      "height_km": 290.686203517502,
      "semi_major_axis_km": 6675.445301361377,
      "eccentricity": 0.001124,
      "inclination_deg": 51.6157,
      "raan_deg": 162.5968,
      "arg_perigee_deg": 10.7491,
      "mean_anomaly_deg": 349.3753,
      "mean_motion_rev_day": 15.91777639
    },
    {
      "epoch": "2026-04-30T08:36:36.758592Z",
      "apogee_km": 302.7396745764454,
      "perigee_km": 287.91230756436653,
      "latitude_deg": 2.5192509366883405e-05,
      "longitude_deg": 170.83201443926922,
      "height_km": 288.8948117132634,
      "semi_major_axis_km": 6673.462991070406,
      "eccentricity": 0.00111092,
      "inclination_deg": 51.6154,
      "raan_deg": 158.2918,
      "arg_perigee_deg": 14.4303,
      "mean_anomaly_deg": 345.7019,
      "mean_motion_rev_day": 15.92486933
    },
    {
      "epoch": "2026-05-02T07:16:05.274048Z",
      "apogee_km": 296.5569631260105,
      "perigee_km": 282.47754440375957,
      "latitude_deg": -1.800369208349655e-05,
      "longitude_deg": 178.7676909691953,
      "height_km": 283.7966214655717,
      "semi_major_axis_km": 6667.654253764885,
      "eccentricity": 0.0010558,
      "inclination_deg": 51.6133,
      "raan_deg": 148.0125,
      "arg_perigee_deg": 23.2638,
      "mean_anomaly_deg": 336.8845,
      "mean_motion_rev_day": 15.94568404
    },
    {
      "epoch": "2026-05-03T10:19:51.991104Z",
      "apogee_km": 292.3447804519001,
      "perigee_km": 279.65919204323836,
      "latitude_deg": 7.725823834082172e-06,
      "longitude_deg": 125.7334170162244,
      "height_km": 281.23312787827507,
      "semi_major_axis_km": 6664.138986247569,
      "eccentricity": 0.00095178,
      "inclination_deg": 51.6129,
      "raan_deg": 142.0343,
      "arg_perigee_deg": 29.6014,
      "mean_anomaly_deg": 330.5531,
      "mean_motion_rev_day": 15.95830249
    },
    {
      "epoch": "2026-05-04T05:51:47.506176Z",
      "apogee_km": 289.5231819559358,
      "perigee_km": 277.40759246227117,
      "latitude_deg": 5.155851629362557e-05,
      "longitude_deg": -172.37061817034152,
      "height_km": 279.1770912506782,
      "semi_major_axis_km": 6661.602387209103,
      "eccentricity": 0.00090936,
      "inclination_deg": 51.6124,
      "raan_deg": 137.7137,
      "arg_perigee_deg": 33.7999,
      "mean_anomaly_deg": 326.3588,
      "mean_motion_rev_day": 15.96741824
    },
    {
      "epoch": "2026-05-05T05:53:10.907232Z",
      "apogee_km": 285.3923951405968,
      "perigee_km": 274.0873202362418,
      "latitude_deg": -2.6809425272824745e-05,
      "longitude_deg": -179.0273843614622,
      "height_km": 276.0723521531782,
      "semi_major_axis_km": 6657.876857688419,
      "eccentricity": 0.000849,
      "inclination_deg": 51.6118,
      "raan_deg": 132.3911,
      "arg_perigee_deg": 38.6737,
      "mean_anomaly_deg": 321.4878,
      "mean_motion_rev_day": 15.98082238
    }
  ]
}